{"type": "FeatureCollection", "features": [ {"type": "Feature", "properties": {"norad_id": 34553, "name": "COSMOS 2251 DEB", "group": "cosmos-2251-debris", "lat": 65.21534387437181, "lon": -153.64503833353422, "alt_km": 706.855758601956, "timestamp": "2025-12-25T07:00:34.442774+00:00", "meta": {"OBJECT_NAME": "COSMOS 2251 DEB", "OBJECT_ID": "1993-036UP", "EPOCH": "2025-12-24T14:45:52.370208", "MEAN_MOTION": 14.57829949, "ECCENTRICITY": 0.00190569, "INCLINATION": 74.0247, "RA_OF_ASC_NODE": 169.2964, "ARG_OF_PERICENTER": 245.8761, "MEAN_ANOMALY": 234.0645, "EPHEMERIS_TYPE": 0, "CLASSIFICATION_TYPE": "U", "NORAD_CAT_ID": 34553, "ELEMENT_SET_NO": 999, "REV_AT_EPOCH": 88269, "BSTAR": 0.0011685062, "MEAN_MOTION_DOT": 5.337e-05, "MEAN_MOTION_DDOT": 0}, "tle": {"line1": "1 34553U 93036UP  25358.61518947  .00005337  00000+0  11685-2 0  9995", "line2": "2 34553  74.0247 169.2964 0019056 245.8761 234.0645 14.57829949882692"}}, "geometry": {"type": "Point", "coordinates": [-153.64503833353422, 65.21534387437181]}}, {"type": "Feature", "properties": {"norad_id": 34554, "name": "COSMOS 2251 DEB", "group": "cosmos-2251-debris", "lat": 1.5462215375996033, "lon": -83.67834767655646, "alt_km": 752.5318929317655, "timestamp": "2025-12-25T07:00:34.442785+00:00", "meta": {"OBJECT_NAME": "COSMOS 2251 DEB", "OBJECT_ID": "1993-036UQ", "EPOCH": "2025-12-24T19:36:15.128928", "MEAN_MOTION": 14.37961289, "ECCENTRICITY": 0.00235133, "INCLINATION": 74.0392, "RA_OF_ASC_NODE": 276.7537, "ARG_OF_PERICENTER": 336.7983, "MEAN_ANOMALY": 85.7272, "EPHEMERIS_TYPE": 0, "CLASSIFICATION_TYPE": "U", "NORAD_CAT_ID": 34554, "ELEMENT_SET_NO": 999, "REV_AT_EPOCH": 87929, "BSTAR": 0.0002967342, "MEAN_MOTION_DOT": 8.73e-06, "MEAN_MOTION_DDOT": 0}, "tle": {"line1": "1 34554U 93036UQ  25358.81684177  .00000873  00000+0  29673-3 0  9994", "line2": "2 34554  74.0392 276.7537 0023513 336.7983  85.7272 14.37961289879294"}}, "geometry": {"type": "Point", "coordinates": [-83.67834767655646, 1.5462215375996033]}}, {"type": "Feature", "properties": {"norad_id": 34556, "name": "COSMOS 2251 DEB", "group": "cosmos-2251-debris", "lat": 11.601846283766701, "lon": -83.19428275081846, "alt_km": 631.7513408719669, "timestamp": "2025-12-25T07:00:34.442795+00:00", "meta": {"OBJECT_NAME": "COSMOS 2251 DEB", "OBJECT_ID": "1993-036US", "EPOCH": "2025-12-24T17:49:59.918304", "MEAN_MOTION": 14.78160014, "ECCENTRICITY": 0.00062755, "INCLINATION": 74.0156, "RA_OF_ASC_NODE": 101.2586, "ARG_OF_PERICENTER": 160.9687, "MEAN_ANOMALY": 326.5415, "EPHEMERIS_TYPE": 0, "CLASSIFICATION_TYPE": "U", "NORAD_CAT_ID": 34556, "ELEMENT_SET_NO": 999, "REV_AT_EPOCH": 88506, "BSTAR": 0.0023122145, "MEAN_MOTION_DOT": 0.00016764, "MEAN_MOTION_DDOT": 0}, "tle": {"line1": "1 34556U 93036US  25358.74305461  .00016764  00000+0  23122-2 0  9992", "line2": "2 34556  74.0156 101.2586 0006275 160.9687 326.5415 14.78160014885063"}}, "geometry": {"type": "Point", "coordinates": [-83.19428275081846, 11.601846283766701]}}, {"type": "Feature", "properties": {"norad_id": 34560, "name": "COSMOS 2251 DEB", "group": "cosmos-2251-debris", "lat": 15.268389284071702, "lon": -66.80681247786428, "alt_km": 645.9184596892392, "timestamp": "2025-12-25T07:00:34.442805+00:00", "meta": {"OBJECT_NAME": "COSMOS 2251 DEB", "OBJECT_ID": "1993-036UW", "EPOCH": "2025-12-24T07:34:02.313120", "MEAN_MOTION": 14.72425193, "ECCENTRICITY": 0.0013752, "INCLINATION": 74.0175, "RA_OF_ASC_NODE": 119.5828, "ARG_OF_PERICENTER": 202.4766, "MEAN_ANOMALY": 186.1612, "EPHEMERIS_TYPE": 0, "CLASSIFICATION_TYPE": "U", "NORAD_CAT_ID": 34560, "ELEMENT_SET_NO": 999, "REV_AT_EPOCH": 88422, "BSTAR": 0.0023419587, "MEAN_MOTION_DOT": 0.00014869, "MEAN_MOTION_DDOT": 0}, "tle": {"line1": "1 34560U 93036UW  25358.31530455  .00014869  00000+0  23420-2 0  9998", "line2": "2 34560  74.0175 119.5828 0013752 202.4766 186.1612 14.72425193884220"}}, "geometry": {"type": "Point", "coordinates": [-66.80681247786428, 15.268389284071702]}}, {"type": "Feature", "properties": {"norad_id": 34563, "name": "COSMOS 2251 DEB", "group": "cosmos-2251-debris", "lat": -24.773121243913135, "lon": 7.863688118764115, "alt_km": 738.4215119823393, "timestamp": "2025-12-25T07:00:34.442816+00:00", "meta": {"OBJECT_NAME": "COSMOS 2251 DEB", "OBJECT_ID": "1993-036UZ", "EPOCH": "2025-12-24T18:30:36.896832", "MEAN_MOTION": 14.46545832, "ECCENTRICITY": 0.00138974, "INCLINATION": 74.0366, "RA_OF_ASC_NODE": 181.2449, "ARG_OF_PERICENTER": 274.6677, "MEAN_ANOMALY": 100.185, "EPHEMERIS_TYPE": 0, "CLASSIFICATION_TYPE": "U", "NORAD_CAT_ID": 34563, "ELEMENT_SET_NO": 999, "REV_AT_EPOCH": 88371, "BSTAR": 0.00042006302, "MEAN_MOTION_DOT": 1.488e-05, "MEAN_MOTION_DDOT": 0}, "tle": {"line1": "1 34563U 93036UZ  25358.77126038  .00001488  00000+0  42006-3 0  9994", "line2": "2 34563  74.0366 181.2449 0013897 274.6677 100.1850 14.46545832883719"}}, "geometry": {"type": "Point", "coordinates": [7.863688118764115, -24.773121243913135]}}, {"type": "Feature", "properties": {"norad_id": 34564, "name": "COSMOS 2251 DEB", "group": "cosmos-2251-debris", "lat": 72.0881474063838, "lon": -82.8485782477069, "alt_km": 756.7766518429753, "timestamp": "2025-12-25T07:00:34.442826+00:00", "meta": {"OBJECT_NAME": "COSMOS 2251 DEB", "OBJECT_ID": "1993-036VA", "EPOCH": "2025-12-24T20:42:06.602688", "MEAN_MOTION": 14.40709151, "ECCENTRICITY": 0.00194284, "INCLINATION": 74.0312, "RA_OF_ASC_NODE": 215.5827, "ARG_OF_PERICENTER": 317.807, "MEAN_ANOMALY": 57.1552, "EPHEMERIS_TYPE": 0, "CLASSIFICATION_TYPE": "U", "NORAD_CAT_ID": 34564, "ELEMENT_SET_NO": 999, "REV_AT_EPOCH": 88181, "BSTAR": 0.000212216, "MEAN_MOTION_DOT": 6.53e-06, "MEAN_MOTION_DDOT": 0}, "tle": {"line1": "1 34564U 93036VA  25358.86257642  .00000653  00000+0  21222-3 0  9991", "line2": "2 34564  74.0312 215.5827 0019428 317.8070  57.1552 14.40709151881814"}}, "geometry": {"type": "Point", "coordinates": [-82.8485782477069, 72.0881474063838]}}, {"type": "Feature", "properties": {"norad_id": 34567, "name": "COSMOS 2251 DEB", "group": "cosmos-2251-debris", "lat": 73.57050234244433, "lon": -121.8400810132393, "alt_km": 823.809048641614, "timestamp": "2025-12-25T07:00:34.442836+00:00", "meta": {"OBJECT_NAME": "COSMOS 2251 DEB", "OBJECT_ID": "1993-036VD", "EPOCH": "2025-12-24T19:19:41.507328", "MEAN_MOTION": 14.24029621, "ECCENTRICITY": 0.00740836, "INCLINATION": 74.0411, "RA_OF_ASC_NODE": 135.0643, "ARG_OF_PERICENTER": 206.7043, "MEAN_ANOMALY": 273.7937, "EPHEMERIS_TYPE": 0, "CLASSIFICATION_TYPE": "U", "NORAD_CAT_ID": 34567, "ELEMENT_SET_NO": 999, "REV_AT_EPOCH": 87296, "BSTAR": 0.00024239106, "MEAN_MOTION_DOT": 5.47e-06, "MEAN_MOTION_DDOT": 0}, "tle": {"line1": "1 34567U 93036VD  25358.80534152  .00000547  00000+0  24239-3 0  9995", "line2": "2 34567  74.0411 135.0643 0074083 206.7043 273.7937 14.24029621872961"}}, "geometry": {"type": "Point", "coordinates": [-121.8400810132393, 73.57050234244433]}}, {"type": "Feature", "properties": {"norad_id": 34569, "name": "COSMOS 2251 DEB", "group": "cosmos-2251-debris", "lat": -62.26118655641135, "lon": 142.34517181772864, "alt_km": 771.9354983024687, "timestamp": "2025-12-25T07:00:34.442846+00:00", "meta": {"OBJECT_NAME": "COSMOS 2251 DEB", "OBJECT_ID": "1993-036VF", "EPOCH": "2025-12-24T21:47:25.699776", "MEAN_MOTION": 14.24781785, "ECCENTRICITY": 0.01578608, "INCLINATION": 73.9893, "RA_OF_ASC_NODE": 176.133, "ARG_OF_PERICENTER": 1.7423, "MEAN_ANOMALY": 123.4277, "EPHEMERIS_TYPE": 0, "CLASSIFICATION_TYPE": "U", "NORAD_CAT_ID": 34569, "ELEMENT_SET_NO": 999, "REV_AT_EPOCH": 87141, "BSTAR": 0.00044437576, "MEAN_MOTION_DOT": 1.152e-05, "MEAN_MOTION_DDOT": 0}, "tle": {"line1": "1 34569U 93036VF  25358.90793634  .00001152  00000+0  44438-3 0  9996", "line2": "2 34569  73.9893 176.1330 0157860   1.7423 123.4277 14.24781785871417"}}, "geometry": {"type": "Point", "coordinates": [142.34517181772864, -62.26118655641135]}}, {"type": "Feature", "properties": {"norad_id": 34570, "name": "COSMOS 2251 DEB", "group": "cosmos-2251-debris", "lat": -1.5744257517724383, "lon": 16.907496942530294, "alt_km": 931.2954101575033, "timestamp": "2025-12-25T07:00:34.442856+00:00", "meta": {"OBJECT_NAME": "COSMOS 2251 DEB", "OBJECT_ID": "1993-036VG", "EPOCH": "2025-12-24T19:58:52.298400", "MEAN_MOTION": 13.99839634, "ECCENTRICITY": 0.01901296, "INCLINATION": 73.9577, "RA_OF_ASC_NODE": 197.2533, "ARG_OF_PERICENTER": 77.0578, "MEAN_ANOMALY": 307.5602, "EPHEMERIS_TYPE": 0, "CLASSIFICATION_TYPE": "U", "NORAD_CAT_ID": 34570, "ELEMENT_SET_NO": 999, "REV_AT_EPOCH": 85770, "BSTAR": 0.00045041255, "MEAN_MOTION_DOT": 7.49e-06, "MEAN_MOTION_DDOT": 0}, "tle": {"line1": "1 34570U 93036VG  25358.83254975  .00000749  00000+0  45041-3 0  9992", "line2": "2 34570  73.9577 197.2533 0190129  77.0578 307.5602 13.99839634857700"}}, "geometry": {"type": "Point", "coordinates": [16.907496942530294, -1.5744257517724383]}}, {"type": "Feature", "properties": {"norad_id": 34571, "name": "COSMOS 2251 DEB", "group": "cosmos-2251-debris", "lat": 73.21414717665455, "lon": -129.52377121059013, "alt_km": 734.2424199270608, "timestamp": "2025-12-25T07:00:34.442866+00:00", "meta": {"OBJECT_NAME": "COSMOS 2251 DEB", "OBJECT_ID": "1993-036VH", "EPOCH": "2025-12-24T20:40:26.923872", "MEAN_MOTION": 14.49017935, "ECCENTRICITY": 0.00648884, "INCLINATION": 74.0401, "RA_OF_ASC_NODE": 159.7142, "ARG_OF_PERICENTER": 192.1385, "MEAN_ANOMALY": 167.8215, "EPHEMERIS_TYPE": 0, "CLASSIFICATION_TYPE": "U", "NORAD_CAT_ID": 34571, "ELEMENT_SET_NO": 999, "REV_AT_EPOCH": 87469, "BSTAR": 0.0030019972, "MEAN_MOTION_DOT": 0.00011689, "MEAN_MOTION_DDOT": 0}, "tle": {"line1": "1 34571U 93036VH  25358.86142273  .00011689  00000+0  30020-2 0  9998", "line2": "2 34571  74.0401 159.7142 0064888 192.1385 167.8215 14.49017935874697"}}, "geometry": {"type": "Point", "coordinates": [-129.52377121059013, 73.21414717665455]}}]}